{
  "type": "FeatureCollection",
  "features": [
    {
      "type": "Feature",
      "properties": {
        "norad_id": 43246,
        "name": "BEIDOU-3 M10 (C30)",
        "group": "gnss",
        "lat": -7.754354034077079,
        "lon": 132.18612735080046,
        "alt_km": 21540.3240413612,
        "timestamp": "2025-12-09T14:52:26.405229+00:00",
        "meta_object_name": "BEIDOU-3 M10 (C30)",
        "meta_object_id": "2018-029B",
        "meta_epoch": "2025-12-08T19:12:10.130400",
        "meta_mean_motion": 1.86228761,
        "meta_eccentricity": 0.00039407,
        "meta_inclination": 54.3671,
        "meta_ra_of_asc_node": 306.6328,
        "meta_arg_of_pericenter": 358.8178,
        "meta_mean_anomaly": 1.1699,
        "meta_ephemeris_type": 0,
        "meta_classification_type": "U",
        "meta_norad_cat_id": 43246,
        "meta_element_set_no": 999,
        "meta_rev_at_epoch": 5233,
        "meta_bstar": 0,
        "meta_mean_motion_dot": -7.4e-07,
        "meta_mean_motion_ddot": 0,
        "tle_line1": "1 43246U 18029B   25342.80011725 -.00000074  00000+0  00000+0 0  9999",
        "tle_line2": "2 43246  54.3671 306.6328 0003940 358.8178   1.1699  1.86228761 52331"
      },
      "geometry": {
        "type": "Point",
        "coordinates": [
          132.18612735080046,
          -7.754354034077079
        ]
      }
    },
    {
      "type": "Feature",
      "properties": {
        "norad_id": 43286,
        "name": "IRNSS-1I",
        "group": "gnss",
        "lat": -28.688775406441977,
        "lon": -1.562665342632498,
        "alt_km": 35803.73456578238,
        "timestamp": "2025-12-09T14:52:26.405241+00:00",
        "meta_object_name": "IRNSS-1I",
        "meta_object_id": "2018-035A",
        "meta_epoch": "2025-12-08T20:42:35.011008",
        "meta_mean_motion": 1.00269532,
        "meta_eccentricity": 0.0021883,
        "meta_inclination": 29.1411,
        "meta_ra_of_asc_node": 77.1575,
        "meta_arg_of_pericenter": 181.4229,
        "meta_mean_anomaly": 184.9765,
        "meta_ephemeris_type": 0,
        "meta_classification_type": "U",
        "meta_norad_cat_id": 43286,
        "meta_element_set_no": 999,
        "meta_rev_at_epoch": 2817,
        "meta_bstar": 0,
        "meta_mean_motion_dot": 7.6e-07,
        "meta_mean_motion_ddot": 0,
        "tle_line1": "1 43286U 18035A   25342.86290522  .00000076  00000+0  00000+0 0  9991",
        "tle_line2": "2 43286  29.1411  77.1575 0021883 181.4229 184.9765  1.00269532 28170"
      },
      "geometry": {
        "type": "Point",
        "coordinates": [
          -1.562665342632498,
          -28.688775406441977
        ]
      }
    },
    {
      "type": "Feature",
      "properties": {
        "norad_id": 43508,
        "name": "COSMOS 2527 (756)",
        "group": "gnss",
        "lat": 65.48209404670591,
        "lon": 168.67771920840937,
        "alt_km": 19139.023141165493,
        "timestamp": "2025-12-09T14:52:26.405264+00:00",
        "meta_object_name": "COSMOS 2527 (756)",
        "meta_object_id": "2018-053A",
        "meta_epoch": "2025-12-08T13:33:02.442240",
        "meta_mean_motion": 2.1310206,
        "meta_eccentricity": 0.0008756,
        "meta_inclination": 65.4701,
        "meta_ra_of_asc_node": 80.2713,
        "meta_arg_of_pericenter": 225.5022,
        "meta_mean_anomaly": 134.4409,
        "meta_ephemeris_type": 0,
        "meta_classification_type": "U",
        "meta_norad_cat_id": 43508,
        "meta_element_set_no": 999,
        "meta_rev_at_epoch": 5821,
        "meta_bstar": 0,
        "meta_mean_motion_dot": -1e-07,
        "meta_mean_motion_ddot": 0,
        "tle_line1": "1 43508U 18053A   25342.56461160 -.00000010  00000+0  00000+0 0  9992",
        "tle_line2": "2 43508  65.4701  80.2713 0008756 225.5022 134.4409  2.13102060 58216"
      },
      "geometry": {
        "type": "Point",
        "coordinates": [
          168.67771920840937,
          65.48209404670591
        ]
      }
    },
    {
      "type": "Feature",
      "properties": {
        "norad_id": 43539,
        "name": "BEIDOU-2 IGSO-7 (C16)",
        "group": "gnss",
        "lat": -49.69363451368993,
        "lon": 39.95141802345285,
        "alt_km": 35415.4965655743,
        "timestamp": "2025-12-09T14:52:26.405278+00:00",
        "meta_object_name": "BEIDOU-2 IGSO-7 (C16)",
        "meta_object_id": "2018-057A",
        "meta_epoch": "2025-12-08T22:18:38.684160",
        "meta_mean_motion": 1.00258196,
        "meta_eccentricity": 0.0092592,
        "meta_inclination": 55.1737,
        "meta_ra_of_asc_node": 164.7043,
        "meta_arg_of_pericenter": 235.2335,
        "meta_mean_anomaly": 123.7803,
        "meta_ephemeris_type": 0,
        "meta_classification_type": "U",
        "meta_norad_cat_id": 43539,
        "meta_element_set_no": 999,
        "meta_rev_at_epoch": 2722,
        "meta_bstar": 0,
        "meta_mean_motion_dot": -7e-07,
        "meta_mean_motion_ddot": 0,
        "tle_line1": "1 43539U 18057A   25342.92961440 -.00000070  00000+0  00000+0 0  9992",
        "tle_line2": "2 43539  55.1737 164.7043 0092592 235.2335 123.7803  1.00258196 27228"
      },
      "geometry": {
        "type": "Point",
        "coordinates": [
          39.95141802345285,
          -49.69363451368993
        ]
      }
    },
    {
      "type": "Feature",
      "properties": {
        "norad_id": 43564,
        "name": "GSAT0221 (GALILEO 25)",
        "group": "gnss",
        "lat": 11.277131884696278,
        "lon": -5.7196600918010425,
        "alt_km": 23221.272926348734,
        "timestamp": "2025-12-09T14:52:26.405294+00:00",
        "meta_object_name": "GSAT0221 (GALILEO 25)",
        "meta_object_id": "2018-060A",
        "meta_epoch": "2025-12-09T00:16:12.119232",
        "meta_mean_motion": 1.70475733,
        "meta_eccentricity": 0.00067013,
        "meta_inclination": 57.2286,
        "meta_ra_of_asc_node": 346.9182,
        "meta_arg_of_pericenter": 282.1379,
        "meta_mean_anomaly": 77.8037,
        "meta_ephemeris_type": 0,
        "meta_classification_type": "U",
        "meta_norad_cat_id": 43564,
        "meta_element_set_no": 999,
        "meta_rev_at_epoch": 4592,
        "meta_bstar": 0,
        "meta_mean_motion_dot": -8.7e-07,
        "meta_mean_motion_ddot": 0,
        "tle_line1": "1 43564U 18060A   25343.01125138 -.00000087  00000+0  00000+0 0  9999",
        "tle_line2": "2 43564  57.2286 346.9182 0006701 282.1379  77.8037  1.70475733 45922"
      },
      "geometry": {
        "type": "Point",
        "coordinates": [
          -5.7196600918010425,
          11.277131884696278
        ]
      }
    },
    {
      "type": "Feature",
      "properties": {
        "norad_id": 43565,
        "name": "GSAT0222 (GALILEO 26)",
        "group": "gnss",
        "lat": -45.96594647924284,
        "lon": -151.32085215539274,
        "alt_km": 23210.53775359254,
        "timestamp": "2025-12-09T14:52:26.405306+00:00",
        "meta_object_name": "GSAT0222 (GALILEO 26)",
        "meta_object_id": "2018-060B",
        "meta_epoch": "2025-12-08T15:27:21.492000",
        "meta_mean_motion": 1.70475431,
        "meta_eccentricity": 0.00061741,
        "meta_inclination": 57.2322,
        "meta_ra_of_asc_node": 346.9312,
        "meta_arg_of_pericenter": 262.3002,
        "meta_mean_anomaly": 97.6467,
        "meta_ephemeris_type": 0,
        "meta_classification_type": "U",
        "meta_norad_cat_id": 43565,
        "meta_element_set_no": 999,
        "meta_rev_at_epoch": 4596,
        "meta_bstar": 0,
        "meta_mean_motion_dot": -8.6e-07,
        "meta_mean_motion_ddot": 0,
        "tle_line1": "1 43565U 18060B   25342.64399875 -.00000086  00000+0  00000+0 0  9998",
        "tle_line2": "2 43565  57.2322 346.9312 0006174 262.3002  97.6467  1.70475431 45962"
      },
      "geometry": {
        "type": "Point",
        "coordinates": [
          -151.32085215539274,
          -45.96594647924284
        ]
      }
    },
    {
      "type": "Feature",
      "properties": {
        "norad_id": 43566,
        "name": "GSAT0219 (GALILEO 23)",
        "group": "gnss",
        "lat": 54.97072757593878,
        "lon": 100.13211844873976,
        "alt_km": 23232.832694512326,
        "timestamp": "2025-12-09T14:52:26.405318+00:00",
        "meta_object_name": "GSAT0219 (GALILEO 23)",
        "meta_object_id": "2018-060C",
        "meta_epoch": "2025-12-07T16:36:27.181728",
        "meta_mean_motion": 1.7047564,
        "meta_eccentricity": 0.00057893,
        "meta_inclination": 57.2316,
        "meta_ra_of_asc_node": 346.9585,
        "meta_arg_of_pericenter": 285.9629,
        "meta_mean_anomaly": 73.992,
        "meta_ephemeris_type": 0,
        "meta_classification_type": "U",
        "meta_norad_cat_id": 43566,
        "meta_element_set_no": 999,
        "meta_rev_at_epoch": 4592,
        "meta_bstar": 0,
        "meta_mean_motion_dot": -8.4e-07,
        "meta_mean_motion_ddot": 0,
        "tle_line1": "1 43566U 18060C   25341.69198127 -.00000084  00000+0  00000+0 0  9998",
        "tle_line2": "2 43566  57.2316 346.9585 0005789 285.9629  73.9920  1.70475640 45924"
      },
      "geometry": {
        "type": "Point",
        "coordinates": [
          100.13211844873976,
          54.97072757593878
        ]
      }
    }
  ]
}